<?xml version="1.0" encoding="UTF-8"?>
<osm version="0.6" generator="openstreetmap-cgimap 2.1.0 (1714942 spike-08.openstreetmap.org)" copyright="OpenStreetMap and contributors" attribution="http://www.openstreetmap.org/copyright" license="http://opendatacommons.org/licenses/odbl/1-0/">
 <bounds minlat="26.4927000" minlon="80.3008000" maxlat="26.4945000" maxlon="80.3028000"/>
 <node id="6257049978" visible="true" version="2" changeset="105876583" timestamp="2021-06-05T10:45:50Z" user="VLD143" uid="10797439" lat="26.4926614" lon="80.3033397"/>
 <node id="6620554313" visible="true" version="3" changeset="106615339" timestamp="2021-06-19T03:44:22Z" user="PlaneMad" uid="1306" lat="26.5038079" lon="80.2970660"/>
 <node id="6620554314" visible="true" version="3" changeset="106615339" timestamp="2021-06-19T03:44:22Z" user="PlaneMad" uid="1306" lat="26.5024685" lon="80.2941853"/>
 <node id="6620554315" visible="true" version="2" changeset="106615339" timestamp="2021-06-19T03:44:22Z" user="PlaneMad" uid="1306" lat="26.5030158" lon="80.2954352"/>
 <node id="6620554316" visible="true" version="2" changeset="106615339" timestamp="2021-06-19T03:44:22Z" user="PlaneMad" uid="1306" lat="26.4930491" lon="80.3037500"/>
 <node id="6620554317" visible="true" version="2" changeset="106615339" timestamp="2021-06-19T03:44:22Z" user="PlaneMad" uid="1306" lat="26.4936973" lon="80.3035408"/>
 <node id="6620554318" visible="true" version="2" changeset="106615339" timestamp="2021-06-19T03:44:22Z" user="PlaneMad" uid="1306" lat="26.5050128" lon="80.3025109"/>
 <node id="6620554319" visible="true" version="2" changeset="106615339" timestamp="2021-06-19T03:44:22Z" user="PlaneMad" uid="1306" lat="26.5038583" lon="80.3031465"/>
 <node id="7054456886" visible="true" version="2" changeset="106615339" timestamp="2021-06-19T03:44:22Z" user="PlaneMad" uid="1306" lat="26.5002169" lon="80.3023875"/>
 <node id="7054456903" visible="true" version="2" changeset="106615339" timestamp="2021-06-19T03:44:22Z" user="PlaneMad" uid="1306" lat="26.5004834" lon="80.3024545"/>
 <node id="7054456941" visible="true" version="2" changeset="106615339" timestamp="2021-06-19T03:44:22Z" user="PlaneMad" uid="1306" lat="26.5043312" lon="80.3007406"/>
 <node id="7054456982" visible="true" version="2" changeset="106615339" timestamp="2021-06-19T03:44:22Z" user="PlaneMad" uid="1306" lat="26.5022429" lon="80.3030285"/>
 <node id="7054457068" visible="true" version="2" changeset="106615339" timestamp="2021-06-19T03:44:22Z" user="PlaneMad" uid="1306" lat="26.5014459" lon="80.3037366"/>
 <node id="7054457105" visible="true" version="2" changeset="106615339" timestamp="2021-06-19T03:44:22Z" user="PlaneMad" uid="1306" lat="26.5034910" lon="80.2964276"/>
 <node id="7054457196" visible="true" version="2" changeset="106615339" timestamp="2021-06-19T03:44:22Z" user="PlaneMad" uid="1306" lat="26.5027445" lon="80.3035542"/>
 <node id="7054457255" visible="true" version="2" changeset="106615339" timestamp="2021-06-19T03:44:22Z" user="PlaneMad" uid="1306" lat="26.4942542" lon="80.3043508"/>
 <node id="7054457349" visible="true" version="2" changeset="106615339" timestamp="2021-06-19T03:44:22Z" user="PlaneMad" uid="1306" lat="26.5023005" lon="80.3031868"/>
 <node id="7054457382" visible="true" version="2" changeset="106615339" timestamp="2021-06-19T03:44:22Z" user="PlaneMad" uid="1306" lat="26.5025813" lon="80.3030232"/>
 <node id="7054457472" visible="true" version="2" changeset="106615339" timestamp="2021-06-19T03:44:22Z" user="PlaneMad" uid="1306" lat="26.4986999" lon="80.3020334"/>
 <node id="7054457536" visible="true" version="2" changeset="106615339" timestamp="2021-06-19T03:44:22Z" user="PlaneMad" uid="1306" lat="26.5017604" lon="80.3032324"/>
 <node id="8806633351" visible="true" version="1" changeset="105876583" timestamp="2021-06-05T10:45:50Z" user="VLD143" uid="10797439" lat="26.4930065" lon="80.3012060"/>
 <node id="8806633352" visible="true" version="1" changeset="105876583" timestamp="2021-06-05T10:45:50Z" user="VLD143" uid="10797439" lat="26.4927149" lon="80.3030372"/>
 <node id="8806633353" visible="true" version="1" changeset="105876583" timestamp="2021-06-05T10:45:50Z" user="VLD143" uid="10797439" lat="26.4927131" lon="80.3028334"/>
 <node id="8806633354" visible="true" version="1" changeset="105876583" timestamp="2021-06-05T10:45:50Z" user="VLD143" uid="10797439" lat="26.4926891" lon="80.3026584"/>
 <node id="8806633355" visible="true" version="1" changeset="105876583" timestamp="2021-06-05T10:45:50Z" user="VLD143" uid="10797439" lat="26.4926794" lon="80.3023687"/>
 <node id="8806633356" visible="true" version="1" changeset="105876583" timestamp="2021-06-05T10:45:50Z" user="VLD143" uid="10797439" lat="26.4926891" lon="80.3021058"/>
 <node id="8806633357" visible="true" version="1" changeset="105876583" timestamp="2021-06-05T10:45:50Z" user="VLD143" uid="10797439" lat="26.4927227" lon="80.3019342"/>
 <node id="8806633358" visible="true" version="1" changeset="105876583" timestamp="2021-06-05T10:45:50Z" user="VLD143" uid="10797439" lat="26.4929297" lon="80.3013776"/>
 <node id="8806633359" visible="true" version="1" changeset="105876583" timestamp="2021-06-05T10:45:50Z" user="VLD143" uid="10797439" lat="26.4929861" lon="80.3012804"/>
 <node id="8806633360" visible="true" version="1" changeset="105876583" timestamp="2021-06-05T10:45:50Z" user="VLD143" uid="10797439" lat="26.4930017" lon="80.3011181"/>
 <node id="8806633361" visible="true" version="1" changeset="105876583" timestamp="2021-06-05T10:45:50Z" user="VLD143" uid="10797439" lat="26.4929483" lon="80.3009552"/>
 <node id="8847423076" visible="true" version="1" changeset="106615339" timestamp="2021-06-19T03:44:19Z" user="PlaneMad" uid="1306" lat="26.4944222" lon="80.3055096"/>
 <node id="8847423077" visible="true" version="1" changeset="106615339" timestamp="2021-06-19T03:44:19Z" user="PlaneMad" uid="1306" lat="26.4944462" lon="80.3046620"/>
 <node id="8847423078" visible="true" version="1" changeset="106615339" timestamp="2021-06-19T03:44:19Z" user="PlaneMad" uid="1306" lat="26.4948735" lon="80.3039807"/>
 <node id="8847423079" visible="true" version="1" changeset="106615339" timestamp="2021-06-19T03:44:19Z" user="PlaneMad" uid="1306" lat="26.4950560" lon="80.3038305"/>
 <node id="8847423080" visible="true" version="1" changeset="106615339" timestamp="2021-06-19T03:44:19Z" user="PlaneMad" uid="1306" lat="26.4965107" lon="80.3025055"/>
 <node id="8847423081" visible="true" version="1" changeset="106615339" timestamp="2021-06-19T03:44:19Z" user="PlaneMad" uid="1306" lat="26.4964579" lon="80.3015506"/>
 <node id="8847423082" visible="true" version="1" changeset="106615339" timestamp="2021-06-19T03:44:19Z" user="PlaneMad" uid="1306" lat="26.4982390" lon="80.3019261"/>
 <node id="8847425004" visible="true" version="1" changeset="106615339" timestamp="2021-06-19T03:44:18Z" user="PlaneMad" uid="1306" lat="26.4926314" lon="80.3029400"/>
 <node id="8847425005" visible="true" version="1" changeset="106615339" timestamp="2021-06-19T03:44:18Z" user="PlaneMad" uid="1306" lat="26.4924442" lon="80.3020441"/>
 <node id="8847425006" visible="true" version="1" changeset="106615339" timestamp="2021-06-19T03:44:18Z" user="PlaneMad" uid="1306" lat="26.4925450" lon="80.3014380"/>
 <node id="8847425007" visible="true" version="1" changeset="106615339" timestamp="2021-06-19T03:44:18Z" user="PlaneMad" uid="1306" lat="26.4931932" lon="80.3002149"/>
 <node id="8847425008" visible="true" version="1" changeset="106615339" timestamp="2021-06-19T03:44:18Z" user="PlaneMad" uid="1306" lat="26.4940094" lon="80.2991688"/>
 <node id="8847425009" visible="true" version="1" changeset="106615339" timestamp="2021-06-19T03:44:18Z" user="PlaneMad" uid="1306" lat="26.4946575" lon="80.2996838"/>
 <node id="8847425010" visible="true" version="1" changeset="106615339" timestamp="2021-06-19T03:44:18Z" user="PlaneMad" uid="1306" lat="26.4958145" lon="80.2977419"/>
 <node id="8847425011" visible="true" version="1" changeset="106615339" timestamp="2021-06-19T03:44:18Z" user="PlaneMad" uid="1306" lat="26.4956753" lon="80.2975863"/>
 <node id="8847425012" visible="true" version="1" changeset="106615339" timestamp="2021-06-19T03:44:18Z" user="PlaneMad" uid="1306" lat="26.4959730" lon="80.2971572"/>
 <node id="8847426701" visible="true" version="1" changeset="106615339" timestamp="2021-06-19T03:44:18Z" user="PlaneMad" uid="1306" lat="26.5038643" lon="80.2974623"/>
 <node id="8847427019" visible="true" version="1" changeset="106615339" timestamp="2021-06-19T03:44:18Z" user="PlaneMad" uid="1306" lat="26.4929243" lon="80.3035730"/>
 <node id="8847427020" visible="true" version="1" changeset="106615339" timestamp="2021-06-19T03:44:18Z" user="PlaneMad" uid="1306" lat="26.4926164" lon="80.3032306"/>
 <node id="8847427021" visible="true" version="1" changeset="106615339" timestamp="2021-06-19T03:44:18Z" user="PlaneMad" uid="1306" lat="26.4977781" lon="80.2947593"/>
 <node id="8847427022" visible="true" version="1" changeset="106615339" timestamp="2021-06-19T03:44:18Z" user="PlaneMad" uid="1306" lat="26.4963570" lon="80.2973342"/>
 <node id="8847427023" visible="true" version="1" changeset="106615339" timestamp="2021-06-19T03:44:18Z" user="PlaneMad" uid="1306" lat="26.4947775" lon="80.2999145"/>
 <node id="8847427024" visible="true" version="1" changeset="106615339" timestamp="2021-06-19T03:44:18Z" user="PlaneMad" uid="1306" lat="26.4944655" lon="80.3003865"/>
 <node id="8847427025" visible="true" version="1" changeset="106615339" timestamp="2021-06-19T03:44:18Z" user="PlaneMad" uid="1306" lat="26.4944030" lon="80.3006923"/>
 <node id="8847427026" visible="true" version="1" changeset="106615339" timestamp="2021-06-19T03:44:18Z" user="PlaneMad" uid="1306" lat="26.4944799" lon="80.3010517"/>
 <node id="8847427027" visible="true" version="1" changeset="106615339" timestamp="2021-06-19T03:44:18Z" user="PlaneMad" uid="1306" lat="26.4935440" lon="80.3050976"/>
 <node id="8847427028" visible="true" version="1" changeset="106615339" timestamp="2021-06-19T03:44:18Z" user="PlaneMad" uid="1306" lat="26.5049624" lon="80.3027174"/>
 <node id="8847427029" visible="true" version="1" changeset="106615339" timestamp="2021-06-19T03:44:18Z" user="PlaneMad" uid="1306" lat="26.5051016" lon="80.3025377"/>
 <node id="8847427030" visible="true" version="1" changeset="106615339" timestamp="2021-06-19T03:44:18Z" user="PlaneMad" uid="1306" lat="26.5051761" lon="80.3021917"/>
 <node id="8847427031" visible="true" version="1" changeset="106615339" timestamp="2021-06-19T03:44:18Z" user="PlaneMad" uid="1306" lat="26.5051833" lon="80.3018859"/>
 <node id="8847427032" visible="true" version="1" changeset="106615339" timestamp="2021-06-19T03:44:18Z" user="PlaneMad" uid="1306" lat="26.5050656" lon="80.3013870"/>
 <node id="8847427033" visible="true" version="1" changeset="106615339" timestamp="2021-06-19T03:44:18Z" user="PlaneMad" uid="1306" lat="26.5042783" lon="80.3011697"/>
 <node id="8847427053" visible="true" version="1" changeset="106615339" timestamp="2021-06-19T03:44:18Z" user="PlaneMad" uid="1306" lat="26.4997273" lon="80.2921575"/>
 <node id="8847427225" visible="true" version="1" changeset="106615339" timestamp="2021-06-19T03:44:19Z" user="PlaneMad" uid="1306" lat="26.5013211" lon="80.3037286"/>
 <node id="8847427226" visible="true" version="1" changeset="106615339" timestamp="2021-06-19T03:44:19Z" user="PlaneMad" uid="1306" lat="26.5000321" lon="80.3032619"/>
 <node id="9476714605" visible="true" version="1" changeset="117018359" timestamp="2022-02-04T18:47:03Z" user="mottiger" uid="7504544" lat="26.4697885" lon="80.3182127"/>
 <node id="9476714606" visible="true" version="1" changeset="117018359" timestamp="2022-02-04T18:47:03Z" user="mottiger" uid="7504544" lat="26.4721431" lon="80.3218386"/>
 <node id="9476714607" visible="true" version="1" changeset="117018359" timestamp="2022-02-04T18:47:03Z" user="mottiger" uid="7504544" lat="26.4724374" lon="80.3224322"/>
 <node id="9476714608" visible="true" version="1" changeset="117018359" timestamp="2022-02-04T18:47:03Z" user="mottiger" uid="7504544" lat="26.4725764" lon="80.3229985"/>
 <node id="9476714609" visible="true" version="1" changeset="117018359" timestamp="2022-02-04T18:47:03Z" user="mottiger" uid="7504544" lat="26.4726745" lon="80.3242040"/>
 <node id="9476714610" visible="true" version="1" changeset="117018359" timestamp="2022-02-04T18:47:03Z" user="mottiger" uid="7504544" lat="26.4726091" lon="80.3256927"/>
 <node id="9476714611" visible="true" version="1" changeset="117018359" timestamp="2022-02-04T18:47:03Z" user="mottiger" uid="7504544" lat="26.4725110" lon="80.3295378"/>
 <node id="9476714612" visible="true" version="1" changeset="117018359" timestamp="2022-02-04T18:47:03Z" user="mottiger" uid="7504544" lat="26.4722576" lon="80.3295195"/>
 <node id="9476714613" visible="true" version="1" changeset="117018359" timestamp="2022-02-04T18:47:03Z" user="mottiger" uid="7504544" lat="26.4720859" lon="80.3297296"/>
 <node id="9476714614" visible="true" version="1" changeset="117018359" timestamp="2022-02-04T18:47:03Z" user="mottiger" uid="7504544" lat="26.4727808" lon="80.3308073"/>
 <node id="9476714615" visible="true" version="1" changeset="117018359" timestamp="2022-02-04T18:47:03Z" user="mottiger" uid="7504544" lat="26.4729934" lon="80.3310082"/>
 <node id="9476714616" visible="true" version="1" changeset="117018359" timestamp="2022-02-04T18:47:03Z" user="mottiger" uid="7504544" lat="26.4732386" lon="80.3310356"/>
 <node id="9476714617" visible="true" version="1" changeset="117018359" timestamp="2022-02-04T18:47:03Z" user="mottiger" uid="7504544" lat="26.4733776" lon="80.3308986"/>
 <node id="9476714618" visible="true" version="1" changeset="117018359" timestamp="2022-02-04T18:47:03Z" user="mottiger" uid="7504544" lat="26.4738109" lon="80.3300949"/>
 <node id="9476714619" visible="true" version="1" changeset="117018359" timestamp="2022-02-04T18:47:03Z" user="mottiger" uid="7504544" lat="26.4740071" lon="80.3298940"/>
 <node id="9476714620" visible="true" version="1" changeset="117018359" timestamp="2022-02-04T18:47:03Z" user="mottiger" uid="7504544" lat="26.4757485" lon="80.3294099"/>
 <node id="9476714621" visible="true" version="1" changeset="117018359" timestamp="2022-02-04T18:47:03Z" user="mottiger" uid="7504544" lat="26.4764270" lon="80.3290355"/>
 <node id="9476714622" visible="true" version="1" changeset="117018359" timestamp="2022-02-04T18:47:03Z" user="mottiger" uid="7504544" lat="26.4764352" lon="80.3289989"/>
 <node id="9476714623" visible="true" version="1" changeset="117018359" timestamp="2022-02-04T18:47:03Z" user="mottiger" uid="7504544" lat="26.4763453" lon="80.3289167"/>
 <node id="9476714624" visible="true" version="1" changeset="117018359" timestamp="2022-02-04T18:47:03Z" user="mottiger" uid="7504544" lat="26.4753234" lon="80.3282592"/>
 <node id="9476714625" visible="true" version="1" changeset="117018359" timestamp="2022-02-04T18:47:03Z" user="mottiger" uid="7504544" lat="26.4762717" lon="80.3249621"/>
 <node id="9476714626" visible="true" version="1" changeset="117018359" timestamp="2022-02-04T18:47:03Z" user="mottiger" uid="7504544" lat="26.4734839" lon="80.3222130"/>
 <node id="9476714627" visible="true" version="1" changeset="117018359" timestamp="2022-02-04T18:47:03Z" user="mottiger" uid="7504544" lat="26.4730670" lon="80.3215098"/>
 <node id="9476714628" visible="true" version="1" changeset="117018359" timestamp="2022-02-04T18:47:03Z" user="mottiger" uid="7504544" lat="26.4728299" lon="80.3206056"/>
 <node id="9476714629" visible="true" version="1" changeset="117018359" timestamp="2022-02-04T18:47:03Z" user="mottiger" uid="7504544" lat="26.4727563" lon="80.3194274"/>
 <node id="9476714630" visible="true" version="1" changeset="117018359" timestamp="2022-02-04T18:47:03Z" user="mottiger" uid="7504544" lat="26.4729688" lon="80.3154271"/>
 <node id="9476714631" visible="true" version="1" changeset="117018359" timestamp="2022-02-04T18:47:03Z" user="mottiger" uid="7504544" lat="26.4728053" lon="80.3147604"/>
 <node id="9476714632" visible="true" version="1" changeset="117018359" timestamp="2022-02-04T18:47:03Z" user="mottiger" uid="7504544" lat="26.4720859" lon="80.3139475"/>
 <node id="9476714633" visible="true" version="1" changeset="117018359" timestamp="2022-02-04T18:47:03Z" user="mottiger" uid="7504544" lat="26.4729688" lon="80.3129703"/>
 <node id="9476714634" visible="true" version="1" changeset="117018359" timestamp="2022-02-04T18:47:03Z" user="mottiger" uid="7504544" lat="26.4800976" lon="80.3057825"/>
 <node id="9476714635" visible="true" version="1" changeset="117018359" timestamp="2022-02-04T18:47:03Z" user="mottiger" uid="7504544" lat="26.4802121" lon="80.3049423"/>
 <node id="9476714636" visible="true" version="1" changeset="117018359" timestamp="2022-02-04T18:47:03Z" user="mottiger" uid="7504544" lat="26.4811113" lon="80.3028690"/>
 <node id="9476714637" visible="true" version="1" changeset="117018359" timestamp="2022-02-04T18:47:03Z" user="mottiger" uid="7504544" lat="26.4828362" lon="80.3003300"/>
 <node id="9476714638" visible="true" version="1" changeset="117018359" timestamp="2022-02-04T18:47:03Z" user="mottiger" uid="7504544" lat="26.4847082" lon="80.2961927"/>
 <node id="9476714639" visible="true" version="1" changeset="117018359" timestamp="2022-02-04T18:47:03Z" user="mottiger" uid="7504544" lat="26.4890571" lon="80.2892972"/>
 <node id="9476714640" visible="true" version="1" changeset="117018359" timestamp="2022-02-04T18:47:03Z" user="mottiger" uid="7504544" lat="26.4892369" lon="80.2894707"/>
 <node id="9476714641" visible="true" version="1" changeset="117018359" timestamp="2022-02-04T18:47:03Z" user="mottiger" uid="7504544" lat="26.4896947" lon="80.2896808"/>
 <node id="9476714642" visible="true" version="1" changeset="117018359" timestamp="2022-02-04T18:47:03Z" user="mottiger" uid="7504544" lat="26.4887873" lon="80.2914526"/>
 <node id="9476714643" visible="true" version="1" changeset="117018359" timestamp="2022-02-04T18:47:03Z" user="mottiger" uid="7504544" lat="26.4884685" lon="80.2919184"/>
 <node id="9476714644" visible="true" version="1" changeset="117018359" timestamp="2022-02-04T18:47:03Z" user="mottiger" uid="7504544" lat="26.4889181" lon="80.2922929"/>
 <node id="9476714645" visible="true" version="1" changeset="117018359" timestamp="2022-02-04T18:47:03Z" user="mottiger" uid="7504544" lat="26.4884276" lon="80.2930601"/>
 <node id="9476714646" visible="true" version="1" changeset="117018359" timestamp="2022-02-04T18:47:03Z" user="mottiger" uid="7504544" lat="26.4880761" lon="80.2934710"/>
 <node id="9476714647" visible="true" version="1" changeset="117018359" timestamp="2022-02-04T18:47:03Z" user="mottiger" uid="7504544" lat="26.4877573" lon="80.2932701"/>
 <node id="9476714648" visible="true" version="1" changeset="117018359" timestamp="2022-02-04T18:47:03Z" user="mottiger" uid="7504544" lat="26.4858200" lon="80.2966950"/>
 <node id="9476714649" visible="true" version="1" changeset="117018359" timestamp="2022-02-04T18:47:03Z" user="mottiger" uid="7504544" lat="26.4853685" lon="80.2978316"/>
 <node id="9476714650" visible="true" version="1" changeset="117018359" timestamp="2022-02-04T18:47:03Z" user="mottiger" uid="7504544" lat="26.4858475" lon="80.2983311"/>
 <node id="9476714651" visible="true" version="1" changeset="117018359" timestamp="2022-02-04T18:47:03Z" user="mottiger" uid="7504544" lat="26.4874764" lon="80.2995444"/>
 <node id="9476714652" visible="true" version="1" changeset="117018359" timestamp="2022-02-04T18:47:03Z" user="mottiger" uid="7504544" lat="26.4876520" lon="80.2997584"/>
 <node id="9476714653" visible="true" version="1" changeset="117018359" timestamp="2022-02-04T18:47:03Z" user="mottiger" uid="7504544" lat="26.4879394" lon="80.3002759"/>
 <node id="9476714654" visible="true" version="1" changeset="117018359" timestamp="2022-02-04T18:47:03Z" user="mottiger" uid="7504544" lat="26.4881470" lon="80.3010787"/>
 <node id="9476714655" visible="true" version="1" changeset="117018359" timestamp="2022-02-04T18:47:03Z" user="mottiger" uid="7504544" lat="26.4882269" lon="80.3017567"/>
 <node id="9476714656" visible="true" version="1" changeset="117018359" timestamp="2022-02-04T18:47:03Z" user="mottiger" uid="7504544" lat="26.4886421" lon="80.3030770"/>
 <node id="9476714657" visible="true" version="1" changeset="117018359" timestamp="2022-02-04T18:47:03Z" user="mottiger" uid="7504544" lat="26.4888177" lon="80.3035230"/>
 <node id="9476714658" visible="true" version="1" changeset="117018359" timestamp="2022-02-04T18:47:03Z" user="mottiger" uid="7504544" lat="26.4890253" lon="80.3039869"/>
 <node id="9476714659" visible="true" version="1" changeset="117018359" timestamp="2022-02-04T18:47:03Z" user="mottiger" uid="7504544" lat="26.4891850" lon="80.3041474"/>
 <node id="9476714660" visible="true" version="1" changeset="117018359" timestamp="2022-02-04T18:47:03Z" user="mottiger" uid="7504544" lat="26.4893926" lon="80.3042723"/>
 <node id="9476714661" visible="true" version="1" changeset="117018359" timestamp="2022-02-04T18:47:03Z" user="mottiger" uid="7504544" lat="26.4896481" lon="80.3043437"/>
 <node id="9476714662" visible="true" version="1" changeset="117018359" timestamp="2022-02-04T18:47:03Z" user="mottiger" uid="7504544" lat="26.4906541" lon="80.3043080"/>
 <node id="9476714663" visible="true" version="1" changeset="117018359" timestamp="2022-02-04T18:47:03Z" user="mottiger" uid="7504544" lat="26.4915962" lon="80.3039512"/>
 <node id="9476714664" visible="true" version="1" changeset="117018359" timestamp="2022-02-04T18:47:03Z" user="mottiger" uid="7504544" lat="26.4917878" lon="80.3037371"/>
 <node id="9476714665" visible="true" version="1" changeset="117018359" timestamp="2022-02-04T18:47:03Z" user="mottiger" uid="7504544" lat="26.4925383" lon="80.3023455"/>
 <node id="9476714666" visible="true" version="1" changeset="117018359" timestamp="2022-02-04T18:47:03Z" user="mottiger" uid="7504544" lat="26.4931291" lon="80.3020243"/>
 <node id="9476714667" visible="true" version="1" changeset="117018359" timestamp="2022-02-04T18:47:03Z" user="mottiger" uid="7504544" lat="26.4933207" lon="80.3020957"/>
 <node id="9476714668" visible="true" version="1" changeset="117018359" timestamp="2022-02-04T18:47:03Z" user="mottiger" uid="7504544" lat="26.4934644" lon="80.3022741"/>
 <node id="9476714669" visible="true" version="1" changeset="117018359" timestamp="2022-02-04T18:47:03Z" user="mottiger" uid="7504544" lat="26.4936082" lon="80.3032018"/>
 <node id="9476714670" visible="true" version="1" changeset="117018359" timestamp="2022-02-04T18:47:03Z" user="mottiger" uid="7504544" lat="26.4936720" lon="80.3032911"/>
 <node id="9476714671" visible="true" version="1" changeset="117018359" timestamp="2022-02-04T18:47:03Z" user="mottiger" uid="7504544" lat="26.4951411" lon="80.3046113"/>
 <node id="9476714672" visible="true" version="1" changeset="117018359" timestamp="2022-02-04T18:47:03Z" user="mottiger" uid="7504544" lat="26.4954764" lon="80.3039512"/>
 <node id="9476714673" visible="true" version="1" changeset="117018359" timestamp="2022-02-04T18:47:03Z" user="mottiger" uid="7504544" lat="26.4960672" lon="80.3030948"/>
 <node id="9476714674" visible="true" version="1" changeset="117018359" timestamp="2022-02-04T18:47:03Z" user="mottiger" uid="7504544" lat="26.4962588" lon="80.3028272"/>
 <node id="9476714675" visible="true" version="1" changeset="117018359" timestamp="2022-02-04T18:47:03Z" user="mottiger" uid="7504544" lat="26.4965622" lon="80.3026666"/>
 <node id="9476714676" visible="true" version="1" changeset="117018359" timestamp="2022-02-04T18:47:03Z" user="mottiger" uid="7504544" lat="26.4968496" lon="80.3026666"/>
 <node id="9476714677" visible="true" version="1" changeset="117018359" timestamp="2022-02-04T18:47:03Z" user="mottiger" uid="7504544" lat="26.4974883" lon="80.3030413"/>
 <node id="9476714678" visible="true" version="1" changeset="117018359" timestamp="2022-02-04T18:47:03Z" user="mottiger" uid="7504544" lat="26.4977757" lon="80.3033089"/>
 <node id="9476714679" visible="true" version="1" changeset="117018359" timestamp="2022-02-04T18:47:03Z" user="mottiger" uid="7504544" lat="26.4983026" lon="80.3040761"/>
 <node id="9476714680" visible="true" version="1" changeset="117018359" timestamp="2022-02-04T18:47:03Z" user="mottiger" uid="7504544" lat="26.4985581" lon="80.3040761"/>
 <node id="9476714681" visible="true" version="1" changeset="117018359" timestamp="2022-02-04T18:47:03Z" user="mottiger" uid="7504544" lat="26.4991329" lon="80.3037371"/>
 <node id="9476714682" visible="true" version="1" changeset="117018359" timestamp="2022-02-04T18:47:03Z" user="mottiger" uid="7504544" lat="26.4994522" lon="80.3034695"/>
 <node id="9476714683" visible="true" version="1" changeset="117018359" timestamp="2022-02-04T18:47:03Z" user="mottiger" uid="7504544" lat="26.5000430" lon="80.3031662"/>
 <node id="9476714684" visible="true" version="1" changeset="117018359" timestamp="2022-02-04T18:47:03Z" user="mottiger" uid="7504544" lat="26.5003304" lon="80.3033981"/>
 <node id="9476714685" visible="true" version="1" changeset="117018359" timestamp="2022-02-04T18:47:03Z" user="mottiger" uid="7504544" lat="26.5009851" lon="80.3037371"/>
 <node id="9476714686" visible="true" version="1" changeset="117018359" timestamp="2022-02-04T18:47:03Z" user="mottiger" uid="7504544" lat="26.5018792" lon="80.3037728"/>
 <node id="9476714687" visible="true" version="1" changeset="117018359" timestamp="2022-02-04T18:47:03Z" user="mottiger" uid="7504544" lat="26.5026296" lon="80.3036122"/>
 <node id="9476714688" visible="true" version="1" changeset="117018359" timestamp="2022-02-04T18:47:03Z" user="mottiger" uid="7504544" lat="26.5040985" lon="80.3030948"/>
 <node id="9476714689" visible="true" version="1" changeset="117018359" timestamp="2022-02-04T18:47:03Z" user="mottiger" uid="7504544" lat="26.5051683" lon="80.3026309"/>
 <node id="9476714690" visible="true" version="1" changeset="117018359" timestamp="2022-02-04T18:47:03Z" user="mottiger" uid="7504544" lat="26.5043221" lon="80.3065917"/>
 <node id="9476714691" visible="true" version="1" changeset="117018359" timestamp="2022-02-04T18:47:03Z" user="mottiger" uid="7504544" lat="26.5028851" lon="80.3103741"/>
 <node id="9476714692" visible="true" version="1" changeset="117018359" timestamp="2022-02-04T18:47:03Z" user="mottiger" uid="7504544" lat="26.5021027" lon="80.3116765"/>
 <node id="9476714693" visible="true" version="1" changeset="117018359" timestamp="2022-02-04T18:47:03Z" user="mottiger" uid="7504544" lat="26.5014002" lon="80.3124080"/>
 <node id="9476714694" visible="true" version="1" changeset="117018359" timestamp="2022-02-04T18:47:03Z" user="mottiger" uid="7504544" lat="26.5003783" lon="80.3144420"/>
 <node id="9476714695" visible="true" version="1" changeset="117018359" timestamp="2022-02-04T18:47:03Z" user="mottiger" uid="7504544" lat="26.5002825" lon="80.3152805"/>
 <node id="9476714696" visible="true" version="1" changeset="117018359" timestamp="2022-02-04T18:47:03Z" user="mottiger" uid="7504544" lat="26.5003623" lon="80.3156909"/>
 <node id="9476714697" visible="true" version="1" changeset="117018359" timestamp="2022-02-04T18:47:03Z" user="mottiger" uid="7504544" lat="26.5005859" lon="80.3160655"/>
 <node id="9476714698" visible="true" version="1" changeset="117018359" timestamp="2022-02-04T18:47:03Z" user="mottiger" uid="7504544" lat="26.5006657" lon="80.3165294"/>
 <node id="9476714699" visible="true" version="1" changeset="117018359" timestamp="2022-02-04T18:47:03Z" user="mottiger" uid="7504544" lat="26.5007136" lon="80.3177070"/>
 <node id="9476714700" visible="true" version="1" changeset="117018359" timestamp="2022-02-04T18:47:03Z" user="mottiger" uid="7504544" lat="26.5006338" lon="80.3186169"/>
 <node id="9476714701" visible="true" version="1" changeset="117018359" timestamp="2022-02-04T18:47:03Z" user="mottiger" uid="7504544" lat="26.5002825" lon="80.3192056"/>
 <node id="9476714702" visible="true" version="1" changeset="117018359" timestamp="2022-02-04T18:47:03Z" user="mottiger" uid="7504544" lat="26.4996758" lon="80.3198301"/>
 <node id="9476714703" visible="true" version="1" changeset="117018359" timestamp="2022-02-04T18:47:03Z" user="mottiger" uid="7504544" lat="26.4973925" lon="80.3218997"/>
 <node id="9476714704" visible="true" version="1" changeset="117018359" timestamp="2022-02-04T18:47:03Z" user="mottiger" uid="7504544" lat="26.4954444" lon="80.3253253"/>
 <node id="9476714705" visible="true" version="1" changeset="117018359" timestamp="2022-02-04T18:47:03Z" user="mottiger" uid="7504544" lat="26.4945822" lon="80.3266634"/>
 <node id="9476714706" visible="true" version="1" changeset="117018359" timestamp="2022-02-04T18:47:03Z" user="mottiger" uid="7504544" lat="26.4939914" lon="80.3279123"/>
 <node id="9476714707" visible="true" version="1" changeset="117018359" timestamp="2022-02-04T18:47:03Z" user="mottiger" uid="7504544" lat="26.4936720" lon="80.3284297"/>
 <node id="9476714708" visible="true" version="1" changeset="117018359" timestamp="2022-02-04T18:47:03Z" user="mottiger" uid="7504544" lat="26.4933686" lon="80.3286081"/>
 <node id="9476714709" visible="true" version="1" changeset="117018359" timestamp="2022-02-04T18:47:03Z" user="mottiger" uid="7504544" lat="26.4930173" lon="80.3286259"/>
 <node id="9476714710" visible="true" version="1" changeset="117018359" timestamp="2022-02-04T18:47:03Z" user="mottiger" uid="7504544" lat="26.4910692" lon="80.3283583"/>
 <node id="9476714711" visible="true" version="1" changeset="117018359" timestamp="2022-02-04T18:47:03Z" user="mottiger" uid="7504544" lat="26.4906381" lon="80.3283940"/>
 <node id="9476714712" visible="true" version="1" changeset="117018359" timestamp="2022-02-04T18:47:03Z" user="mottiger" uid="7504544" lat="26.4902549" lon="80.3292147"/>
 <node id="9476714713" visible="true" version="1" changeset="117018359" timestamp="2022-02-04T18:47:03Z" user="mottiger" uid="7504544" lat="26.4901750" lon="80.3294109"/>
 <node id="9476714714" visible="true" version="1" changeset="117018359" timestamp="2022-02-04T18:47:03Z" user="mottiger" uid="7504544" lat="26.4897119" lon="80.3307312"/>
 <node id="9476714715" visible="true" version="1" changeset="117018359" timestamp="2022-02-04T18:47:03Z" user="mottiger" uid="7504544" lat="26.4884664" lon="80.3355841"/>
 <node id="9476714716" visible="true" version="1" changeset="117018359" timestamp="2022-02-04T18:47:03Z" user="mottiger" uid="7504544" lat="26.4876360" lon="80.3374396"/>
 <node id="9476714717" visible="true" version="1" changeset="117018359" timestamp="2022-02-04T18:47:03Z" user="mottiger" uid="7504544" lat="26.4866619" lon="80.3392059"/>
 <node id="9476714718" visible="true" version="1" changeset="117018359" timestamp="2022-02-04T18:47:03Z" user="mottiger" uid="7504544" lat="26.4882907" lon="80.3419000"/>
 <node id="9476714719" visible="true" version="1" changeset="117018359" timestamp="2022-02-04T18:47:03Z" user="mottiger" uid="7504544" lat="26.4860871" lon="80.3468599"/>
 <node id="9476714720" visible="true" version="1" changeset="117018359" timestamp="2022-02-04T18:47:03Z" user="mottiger" uid="7504544" lat="26.4822385" lon="80.3516057"/>
 <node id="9476714721" visible="true" version="1" changeset="117018359" timestamp="2022-02-04T18:47:03Z" user="mottiger" uid="7504544" lat="26.4801465" lon="80.3552989"/>
 <node id="9476714722" visible="true" version="1" changeset="117018359" timestamp="2022-02-04T18:47:03Z" user="mottiger" uid="7504544" lat="26.4790685" lon="80.3587958"/>
 <node id="9476714723" visible="true" version="1" changeset="117018359" timestamp="2022-02-04T18:47:03Z" user="mottiger" uid="7504544" lat="26.4778947" lon="80.3606335"/>
 <node id="9476714724" visible="true" version="1" changeset="117018359" timestamp="2022-02-04T18:47:03Z" user="mottiger" uid="7504544" lat="26.4745330" lon="80.3652990"/>
 <node id="9476714725" visible="true" version="1" changeset="117018359" timestamp="2022-02-04T18:47:03Z" user="mottiger" uid="7504544" lat="26.4723051" lon="80.3683142"/>
 <node id="9476714726" visible="true" version="1" changeset="117018359" timestamp="2022-02-04T18:47:03Z" user="mottiger" uid="7504544" lat="26.4688793" lon="80.3721858"/>
 <node id="9476714727" visible="true" version="1" changeset="117018359" timestamp="2022-02-04T18:47:03Z" user="mottiger" uid="7504544" lat="26.4661083" lon="80.3697059"/>
 <node id="9476714728" visible="true" version="1" changeset="117018359" timestamp="2022-02-04T18:47:03Z" user="mottiger" uid="7504544" lat="26.4643274" lon="80.3676095"/>
 <node id="9476714729" visible="true" version="1" changeset="117018359" timestamp="2022-02-04T18:47:03Z" user="mottiger" uid="7504544" lat="26.4613566" lon="80.3648887"/>
 <node id="9476714730" visible="true" version="1" changeset="117018359" timestamp="2022-02-04T18:47:03Z" user="mottiger" uid="7504544" lat="26.4589767" lon="80.3627031"/>
 <node id="9476714731" visible="true" version="1" changeset="117018359" timestamp="2022-02-04T18:47:03Z" user="mottiger" uid="7504544" lat="26.4578746" lon="80.3610885"/>
 <node id="9476714732" visible="true" version="1" changeset="117018359" timestamp="2022-02-04T18:47:03Z" user="mottiger" uid="7504544" lat="26.4567246" lon="80.3585728"/>
 <node id="9476714733" visible="true" version="1" changeset="117018359" timestamp="2022-02-04T18:47:03Z" user="mottiger" uid="7504544" lat="26.4558780" lon="80.3545942"/>
 <node id="9476714734" visible="true" version="1" changeset="117018359" timestamp="2022-02-04T18:47:03Z" user="mottiger" uid="7504544" lat="26.4559738" lon="80.3540232"/>
 <node id="9476714735" visible="true" version="1" changeset="117018359" timestamp="2022-02-04T18:47:03Z" user="mottiger" uid="7504544" lat="26.4559419" lon="80.3533185"/>
 <node id="9476714736" visible="true" version="1" changeset="117018359" timestamp="2022-02-04T18:47:03Z" user="mottiger" uid="7504544" lat="26.4556703" lon="80.3524978"/>
 <node id="9476714737" visible="true" version="1" changeset="117018359" timestamp="2022-02-04T18:47:03Z" user="mottiger" uid="7504544" lat="26.4567166" lon="80.3504817"/>
 <node id="9476714738" visible="true" version="1" changeset="117018359" timestamp="2022-02-04T18:47:03Z" user="mottiger" uid="7504544" lat="26.4573954" lon="80.3497145"/>
 <node id="9476714739" visible="true" version="1" changeset="117018359" timestamp="2022-02-04T18:47:03Z" user="mottiger" uid="7504544" lat="26.4574433" lon="80.3472881"/>
 <node id="9476714740" visible="true" version="1" changeset="117018359" timestamp="2022-02-04T18:47:03Z" user="mottiger" uid="7504544" lat="26.4593201" lon="80.3458429"/>
 <node id="9476714741" visible="true" version="1" changeset="117018359" timestamp="2022-02-04T18:47:03Z" user="mottiger" uid="7504544" lat="26.4596156" lon="80.3448617"/>
 <node id="9476714742" visible="true" version="1" changeset="117018359" timestamp="2022-02-04T18:47:03Z" user="mottiger" uid="7504544" lat="26.4578427" lon="80.3425958"/>
 <node id="9476714743" visible="true" version="1" changeset="117018359" timestamp="2022-02-04T18:47:03Z" user="mottiger" uid="7504544" lat="26.4563732" lon="80.3426761"/>
 <node id="9476714744" visible="true" version="1" changeset="117018359" timestamp="2022-02-04T18:47:03Z" user="mottiger" uid="7504544" lat="26.4545283" lon="80.3405619"/>
 <node id="9476714745" visible="true" version="1" changeset="117018359" timestamp="2022-02-04T18:47:03Z" user="mottiger" uid="7504544" lat="26.4525555" lon="80.3393130"/>
 <node id="9476714746" visible="true" version="1" changeset="117018359" timestamp="2022-02-04T18:47:03Z" user="mottiger" uid="7504544" lat="26.4516610" lon="80.3377786"/>
 <node id="9476714747" visible="true" version="1" changeset="117018359" timestamp="2022-02-04T18:47:03Z" user="mottiger" uid="7504544" lat="26.4515332" lon="80.3365743"/>
 <node id="9476714748" visible="true" version="1" changeset="117018359" timestamp="2022-02-04T18:47:03Z" user="mottiger" uid="7504544" lat="26.4516451" lon="80.3354503"/>
 <node id="9476714749" visible="true" version="1" changeset="117018359" timestamp="2022-02-04T18:47:03Z" user="mottiger" uid="7504544" lat="26.4525156" lon="80.3324440"/>
 <node id="9476714750" visible="true" version="1" changeset="117018359" timestamp="2022-02-04T18:47:03Z" user="mottiger" uid="7504544" lat="26.4532983" lon="80.3304636"/>
 <node id="9476714751" visible="true" version="1" changeset="117018359" timestamp="2022-02-04T18:47:03Z" user="mottiger" uid="7504544" lat="26.4544324" lon="80.3293842"/>
 <node id="9476714752" visible="true" version="1" changeset="117018359" timestamp="2022-02-04T18:47:03Z" user="mottiger" uid="7504544" lat="26.4599510" lon="80.3249952"/>
 <node id="9476714753" visible="true" version="1" changeset="117018359" timestamp="2022-02-04T18:47:03Z" user="mottiger" uid="7504544" lat="26.4618518" lon="80.3233092"/>
 <node id="9476714754" visible="true" version="1" changeset="117018359" timestamp="2022-02-04T18:47:03Z" user="mottiger" uid="7504544" lat="26.4644073" lon="80.3214358"/>
 <node id="9476714755" visible="true" version="1" changeset="117018359" timestamp="2022-02-04T18:47:03Z" user="mottiger" uid="7504544" lat="26.4688793" lon="80.3169755"/>
 <node id="11224644126" visible="true" version="1" changeset="141856751" timestamp="2023-09-28T09:59:48Z" user="pittrichimica" uid="497524" lat="26.4932771" lon="80.3007728"/>
 <node id="11224644127" visible="true" version="1" changeset="141856751" timestamp="2023-09-28T09:59:48Z" user="pittrichimica" uid="497524" lat="26.4934288" lon="80.3005599"/>
 <node id="11224644128" visible="true" version="1" changeset="141856751" timestamp="2023-09-28T09:59:48Z" user="pittrichimica" uid="497524" lat="26.4934697" lon="80.3005963"/>
 <node id="11224644129" visible="true" version="1" changeset="141856751" timestamp="2023-09-28T09:59:48Z" user="pittrichimica" uid="497524" lat="26.4934546" lon="80.3006175"/>
 <node id="11224644130" visible="true" version="1" changeset="141856751" timestamp="2023-09-28T09:59:48Z" user="pittrichimica" uid="497524" lat="26.4935150" lon="80.3006711"/>
 <node id="11224644131" visible="true" version="1" changeset="141856751" timestamp="2023-09-28T09:59:48Z" user="pittrichimica" uid="497524" lat="26.4933785" lon="80.3008629"/>
 <node id="11224644136" visible="true" version="1" changeset="141856751" timestamp="2023-09-28T09:59:48Z" user="pittrichimica" uid="497524" lat="26.4931576" lon="80.3014421"/>
 <node id="11224644137" visible="true" version="1" changeset="141856751" timestamp="2023-09-28T09:59:48Z" user="pittrichimica" uid="497524" lat="26.4935635" lon="80.3006209"/>
 <node id="11224644138" visible="true" version="1" changeset="141856751" timestamp="2023-09-28T09:59:48Z" user="pittrichimica" uid="497524" lat="26.4941112" lon="80.3009886"/>
 <node id="11224644139" visible="true" version="1" changeset="141856751" timestamp="2023-09-28T09:59:48Z" user="pittrichimica" uid="497524" lat="26.4940600" lon="80.3012704"/>
 <node id="11224644140" visible="true" version="1" changeset="141856751" timestamp="2023-09-28T09:59:48Z" user="pittrichimica" uid="497524" lat="26.4947633" lon="80.3012087"/>
 <node id="11224644141" visible="true" version="1" changeset="141856751" timestamp="2023-09-28T09:59:48Z" user="pittrichimica" uid="497524" lat="26.4948087" lon="80.3015257"/>
 <node id="11224644142" visible="true" version="1" changeset="141856751" timestamp="2023-09-28T09:59:48Z" user="pittrichimica" uid="497524" lat="26.4951535" lon="80.3015632"/>
 <node id="11224644143" visible="true" version="1" changeset="141856751" timestamp="2023-09-28T09:59:48Z" user="pittrichimica" uid="497524" lat="26.4949643" lon="80.3020079"/>
 <node id="11224644144" visible="true" version="1" changeset="141856751" timestamp="2023-09-28T09:59:48Z" user="pittrichimica" uid="497524" lat="26.4945919" lon="80.3024305"/>
 <node id="11224644145" visible="true" version="1" changeset="141856751" timestamp="2023-09-28T09:59:48Z" user="pittrichimica" uid="497524" lat="26.4942353" lon="80.3025428"/>
 <node id="11224644146" visible="true" version="1" changeset="141856751" timestamp="2023-09-28T09:59:48Z" user="pittrichimica" uid="497524" lat="26.4936442" lon="80.3019880"/>
 <node id="11224644147" visible="true" version="1" changeset="141856751" timestamp="2023-09-28T09:59:48Z" user="pittrichimica" uid="497524" lat="26.4934393" lon="80.3019352"/>
 <node id="11224644148" visible="true" version="1" changeset="141856751" timestamp="2023-09-28T09:59:48Z" user="pittrichimica" uid="497524" lat="26.4933802" lon="80.3020937"/>
 <node id="11224644149" visible="true" version="1" changeset="141856751" timestamp="2023-09-28T09:59:48Z" user="pittrichimica" uid="497524" lat="26.4929231" lon="80.3018868"/>
 <node id="11224644150" visible="true" version="1" changeset="141856751" timestamp="2023-09-28T09:59:48Z" user="pittrichimica" uid="497524" lat="26.4930532" lon="80.3016776"/>
 <node id="11224644151" visible="true" version="1" changeset="141856751" timestamp="2023-09-28T09:59:48Z" user="pittrichimica" uid="497524" lat="26.4932896" lon="80.3018031"/>
 <node id="11224644152" visible="true" version="1" changeset="141856751" timestamp="2023-09-28T09:59:48Z" user="pittrichimica" uid="497524" lat="26.4933842" lon="80.3015940"/>
 <node id="11224644153" visible="true" version="1" changeset="141856751" timestamp="2023-09-28T09:59:48Z" user="pittrichimica" uid="497524" lat="26.4931427" lon="80.3012364"/>
 <node id="11224644154" visible="true" version="1" changeset="141856751" timestamp="2023-09-28T09:59:48Z" user="pittrichimica" uid="497524" lat="26.4932035" lon="80.3012698"/>
 <node id="11224644155" visible="true" version="1" changeset="141856751" timestamp="2023-09-28T09:59:48Z" user="pittrichimica" uid="497524" lat="26.4931037" lon="80.3014969"/>
 <node id="11224644156" visible="true" version="1" changeset="141856751" timestamp="2023-09-28T09:59:48Z" user="pittrichimica" uid="497524" lat="26.4931814" lon="80.3015395"/>
 <node id="11224644157" visible="true" version="1" changeset="141856751" timestamp="2023-09-28T09:59:48Z" user="pittrichimica" uid="497524" lat="26.4931485" lon="80.3016143"/>
 <node id="11224644158" visible="true" version="1" changeset="141856751" timestamp="2023-09-28T09:59:48Z" user="pittrichimica" uid="497524" lat="26.4930665" lon="80.3015693"/>
 <node id="11224644159" visible="true" version="1" changeset="141856751" timestamp="2023-09-28T09:59:48Z" user="pittrichimica" uid="497524" lat="26.4930513" lon="80.3016039"/>
 <node id="11224644160" visible="true" version="1" changeset="141856751" timestamp="2023-09-28T09:59:48Z" user="pittrichimica" uid="497524" lat="26.4929947" lon="80.3015728"/>
 <node id="11224644161" visible="true" version="1" changeset="141856751" timestamp="2023-09-28T09:59:48Z" user="pittrichimica" uid="497524" lat="26.4931464" lon="80.3016536"/>
 <node id="11224644162" visible="true" version="1" changeset="141856751" timestamp="2023-09-28T09:59:48Z" user="pittrichimica" uid="497524" lat="26.4931926" lon="80.3015488"/>
 <node id="11224644163" visible="true" version="1" changeset="141856751" timestamp="2023-09-28T09:59:48Z" user="pittrichimica" uid="497524" lat="26.4933237" lon="80.3016210"/>
 <node id="11224644164" visible="true" version="1" changeset="141856751" timestamp="2023-09-28T09:59:48Z" user="pittrichimica" uid="497524" lat="26.4932774" lon="80.3017258"/>
 <way id="704905546" visible="true" version="4" changeset="128917598" timestamp="2022-11-15T04:47:23Z" user="apnkpr" uid="2074711">
  <nd ref="8847423081"/>
  <nd ref="8847427026"/>
  <nd ref="8847427025"/>
  <nd ref="8847427024"/>
  <nd ref="8847427023"/>
  <nd ref="8847425009"/>
  <nd ref="8847425010"/>
  <nd ref="8847425011"/>
  <nd ref="8847425012"/>
  <nd ref="8847427022"/>
  <nd ref="8847427021"/>
  <nd ref="8847427053"/>
  <nd ref="6620554314"/>
  <nd ref="6620554315"/>
  <nd ref="7054457105"/>
  <nd ref="6620554313"/>
  <nd ref="8847426701"/>
  <nd ref="7054456941"/>
  <nd ref="8847427033"/>
  <nd ref="8847427032"/>
  <nd ref="8847427031"/>
  <nd ref="8847427030"/>
  <nd ref="8847427029"/>
  <nd ref="6620554318"/>
  <nd ref="8847427028"/>
  <nd ref="6620554319"/>
  <nd ref="7054457196"/>
  <nd ref="7054457382"/>
  <nd ref="7054457349"/>
  <nd ref="7054456982"/>
  <nd ref="7054457536"/>
  <nd ref="7054457068"/>
  <nd ref="8847427225"/>
  <nd ref="8847427226"/>
  <nd ref="7054456903"/>
  <nd ref="7054456886"/>
  <nd ref="7054457472"/>
  <nd ref="8847423082"/>
  <nd ref="8847423081"/>
  <tag k="addr:city" v="Kanpur"/>
  <tag k="charge" v="70 INR"/>
  <tag k="fee" v="yes"/>
  <tag k="name" v="Kanpur Zoological Park"/>
  <tag k="tourism" v="zoo"/>
  <tag k="wikidata" v="Q4731647"/>
  <tag k="wikipedia" v="en:Kanpur Zoological Park"/>
 </way>
 <way id="951429613" visible="true" version="1" changeset="105876583" timestamp="2021-06-05T10:45:50Z" user="VLD143" uid="10797439">
  <nd ref="8806633361"/>
  <nd ref="8806633360"/>
  <nd ref="8806633351"/>
  <nd ref="8806633359"/>
  <nd ref="8806633358"/>
  <nd ref="8806633357"/>
  <nd ref="8806633356"/>
  <nd ref="8806633355"/>
  <nd ref="8806633354"/>
  <nd ref="8806633353"/>
  <nd ref="8806633352"/>
  <nd ref="6257049978"/>
  <tag k="highway" v="service"/>
  <tag k="source" v="maxar"/>
 </way>
 <way id="955941908" visible="true" version="1" changeset="106615339" timestamp="2021-06-19T03:44:21Z" user="PlaneMad" uid="1306">
  <nd ref="6620554316"/>
  <nd ref="8847427019"/>
  <nd ref="8847427020"/>
  <nd ref="8847425004"/>
  <nd ref="8847425005"/>
  <nd ref="8847425006"/>
  <nd ref="8847425007"/>
  <nd ref="8847425008"/>
  <nd ref="8847425009"/>
  <nd ref="8847427023"/>
  <nd ref="8847427024"/>
  <nd ref="8847427025"/>
  <nd ref="8847427026"/>
  <nd ref="8847423081"/>
  <nd ref="8847423080"/>
  <nd ref="8847423079"/>
  <nd ref="8847423078"/>
  <nd ref="8847423077"/>
  <nd ref="8847423076"/>
  <nd ref="8847427027"/>
  <nd ref="7054457255"/>
  <nd ref="6620554317"/>
  <nd ref="6620554316"/>
  <tag k="landuse" v="commercial"/>
 </way>
 <way id="1028144011" visible="true" version="1" changeset="117018359" timestamp="2022-02-04T18:47:03Z" user="mottiger" uid="7504544">
  <nd ref="9476714755"/>
  <nd ref="9476714754"/>
  <nd ref="9476714753"/>
  <nd ref="9476714752"/>
  <nd ref="9476714751"/>
  <nd ref="9476714750"/>
  <nd ref="9476714749"/>
  <nd ref="9476714748"/>
  <nd ref="9476714747"/>
  <nd ref="9476714746"/>
  <nd ref="9476714745"/>
  <nd ref="9476714744"/>
  <nd ref="9476714743"/>
  <nd ref="9476714742"/>
  <nd ref="9476714741"/>
  <nd ref="9476714740"/>
  <nd ref="9476714739"/>
  <nd ref="9476714738"/>
  <nd ref="9476714737"/>
  <nd ref="9476714736"/>
  <nd ref="9476714735"/>
  <nd ref="9476714734"/>
  <nd ref="9476714733"/>
  <nd ref="9476714732"/>
  <nd ref="9476714731"/>
  <nd ref="9476714730"/>
  <nd ref="9476714729"/>
  <nd ref="9476714728"/>
  <nd ref="9476714727"/>
  <nd ref="9476714726"/>
  <nd ref="9476714725"/>
  <nd ref="9476714724"/>
  <nd ref="9476714723"/>
  <nd ref="9476714722"/>
  <nd ref="9476714721"/>
  <nd ref="9476714720"/>
  <nd ref="9476714719"/>
  <nd ref="9476714718"/>
  <nd ref="9476714717"/>
  <nd ref="9476714716"/>
  <nd ref="9476714715"/>
  <nd ref="9476714714"/>
  <nd ref="9476714713"/>
  <nd ref="9476714712"/>
  <nd ref="9476714711"/>
  <nd ref="9476714710"/>
  <nd ref="9476714709"/>
  <nd ref="9476714708"/>
  <nd ref="9476714707"/>
  <nd ref="9476714706"/>
  <nd ref="9476714705"/>
  <nd ref="9476714704"/>
  <nd ref="9476714703"/>
  <nd ref="9476714702"/>
  <nd ref="9476714701"/>
  <nd ref="9476714700"/>
  <nd ref="9476714699"/>
  <nd ref="9476714698"/>
  <nd ref="9476714697"/>
  <nd ref="9476714696"/>
  <nd ref="9476714695"/>
  <nd ref="9476714694"/>
  <nd ref="9476714693"/>
  <nd ref="9476714692"/>
  <nd ref="9476714691"/>
  <nd ref="9476714690"/>
  <nd ref="9476714689"/>
  <nd ref="9476714688"/>
  <nd ref="9476714687"/>
  <nd ref="9476714686"/>
  <nd ref="9476714685"/>
  <nd ref="9476714684"/>
  <nd ref="9476714683"/>
  <nd ref="9476714682"/>
  <nd ref="9476714681"/>
  <nd ref="9476714680"/>
  <nd ref="9476714679"/>
  <nd ref="9476714678"/>
  <nd ref="9476714677"/>
  <nd ref="9476714676"/>
  <nd ref="9476714675"/>
  <nd ref="9476714674"/>
  <nd ref="9476714673"/>
  <nd ref="9476714672"/>
  <nd ref="9476714671"/>
  <nd ref="9476714670"/>
  <nd ref="9476714669"/>
  <nd ref="9476714668"/>
  <nd ref="9476714667"/>
  <nd ref="9476714666"/>
  <nd ref="9476714665"/>
  <nd ref="9476714664"/>
  <nd ref="9476714663"/>
  <nd ref="9476714662"/>
  <nd ref="9476714661"/>
  <nd ref="9476714660"/>
  <nd ref="9476714659"/>
  <nd ref="9476714658"/>
  <nd ref="9476714657"/>
  <nd ref="9476714656"/>
  <nd ref="9476714655"/>
  <nd ref="9476714654"/>
  <nd ref="9476714653"/>
  <nd ref="9476714652"/>
  <nd ref="9476714651"/>
  <nd ref="9476714650"/>
  <nd ref="9476714649"/>
  <nd ref="9476714648"/>
  <nd ref="9476714647"/>
  <nd ref="9476714646"/>
  <nd ref="9476714645"/>
  <nd ref="9476714644"/>
  <nd ref="9476714643"/>
  <nd ref="9476714642"/>
  <nd ref="9476714641"/>
  <nd ref="9476714640"/>
  <nd ref="9476714639"/>
  <nd ref="9476714638"/>
  <nd ref="9476714637"/>
  <nd ref="9476714636"/>
  <nd ref="9476714635"/>
  <nd ref="9476714634"/>
  <nd ref="9476714633"/>
  <nd ref="9476714632"/>
  <nd ref="9476714631"/>
  <nd ref="9476714630"/>
  <nd ref="9476714629"/>
  <nd ref="9476714628"/>
  <nd ref="9476714627"/>
  <nd ref="9476714626"/>
  <nd ref="9476714625"/>
  <nd ref="9476714624"/>
  <nd ref="9476714623"/>
  <nd ref="9476714622"/>
  <nd ref="9476714621"/>
  <nd ref="9476714620"/>
  <nd ref="9476714619"/>
  <nd ref="9476714618"/>
  <nd ref="9476714617"/>
  <nd ref="9476714616"/>
  <nd ref="9476714615"/>
  <nd ref="9476714614"/>
  <nd ref="9476714613"/>
  <nd ref="9476714612"/>
  <nd ref="9476714611"/>
  <nd ref="9476714610"/>
  <nd ref="9476714609"/>
  <nd ref="9476714608"/>
  <nd ref="9476714607"/>
  <nd ref="9476714606"/>
  <nd ref="9476714605"/>
  <nd ref="9476714755"/>
  <tag k="landuse" v="residential"/>
 </way>
 <way id="1211543675" visible="true" version="1" changeset="141856751" timestamp="2023-09-28T09:59:48Z" user="pittrichimica" uid="497524">
  <nd ref="11224644126"/>
  <nd ref="11224644127"/>
  <nd ref="11224644128"/>
  <nd ref="11224644129"/>
  <nd ref="11224644130"/>
  <nd ref="11224644131"/>
  <nd ref="11224644126"/>
  <tag k="building" v="yes"/>
 </way>
 <way id="1211543677" visible="true" version="1" changeset="141856751" timestamp="2023-09-28T09:59:48Z" user="pittrichimica" uid="497524">
  <nd ref="11224644136"/>
  <nd ref="11224644137"/>
  <nd ref="11224644138"/>
  <nd ref="11224644139"/>
  <nd ref="11224644140"/>
  <nd ref="11224644141"/>
  <nd ref="11224644142"/>
  <nd ref="11224644143"/>
  <nd ref="11224644144"/>
  <nd ref="11224644145"/>
  <nd ref="11224644146"/>
  <nd ref="11224644147"/>
  <nd ref="11224644148"/>
  <nd ref="11224644149"/>
  <nd ref="11224644150"/>
  <nd ref="11224644151"/>
  <nd ref="11224644152"/>
  <nd ref="11224644136"/>
  <tag k="access" v="private"/>
  <tag k="leisure" v="park"/>
 </way>
 <way id="1211543678" visible="true" version="1" changeset="141856751" timestamp="2023-09-28T09:59:48Z" user="pittrichimica" uid="497524">
  <nd ref="11224644153"/>
  <nd ref="11224644154"/>
  <nd ref="11224644155"/>
  <nd ref="11224644156"/>
  <nd ref="11224644157"/>
  <nd ref="11224644158"/>
  <nd ref="11224644159"/>
  <nd ref="11224644160"/>
  <nd ref="11224644153"/>
  <tag k="building" v="yes"/>
 </way>
 <way id="1211543679" visible="true" version="1" changeset="141856751" timestamp="2023-09-28T09:59:48Z" user="pittrichimica" uid="497524">
  <nd ref="11224644161"/>
  <nd ref="11224644162"/>
  <nd ref="11224644163"/>
  <nd ref="11224644164"/>
  <nd ref="11224644161"/>
  <tag k="building" v="yes"/>
 </way>
</osm>
