<?xml version="1.0" encoding="UTF-8"?>
<osm version="0.6" generator="openstreetmap-cgimap 2.1.0 (3604804 spike-08.openstreetmap.org)" copyright="OpenStreetMap and contributors" attribution="http://www.openstreetmap.org/copyright" license="http://opendatacommons.org/licenses/odbl/1-0/">
 <bounds minlat="35.6840000" minlon="-117.6940000" maxlat="35.6870000" maxlon="-117.6900000"/>
 <node id="3926543675" visible="true" version="1" changeset="36352772" timestamp="2016-01-04T06:13:25Z" user="user_115918" uid="115918" lat="35.6876461" lon="-117.6865928"/>
 <node id="9803103225" visible="true" version="1" changeset="122100259" timestamp="2022-06-08T06:18:05Z" user="ds8x" uid="13447864" lat="35.6878605" lon="-117.6907570"/>
 <node id="9803103227" visible="true" version="1" changeset="122100259" timestamp="2022-06-08T06:18:05Z" user="ds8x" uid="13447864" lat="35.6850407" lon="-117.6942751"/>
 <node id="9803103233" visible="true" version="1" changeset="122100259" timestamp="2022-06-08T06:18:05Z" user="ds8x" uid="13447864" lat="35.6853300" lon="-117.6932603"/>
 <node id="9803103236" visible="true" version="1" changeset="122100259" timestamp="2022-06-08T06:18:05Z" user="ds8x" uid="13447864" lat="35.6871798" lon="-117.6921811"/>
 <node id="9803103253" visible="true" version="1" changeset="122100259" timestamp="2022-06-08T06:18:05Z" user="ds8x" uid="13447864" lat="35.6857387" lon="-117.6913763"/>
 <node id="9803103265" visible="true" version="1" changeset="122100259" timestamp="2022-06-08T06:18:05Z" user="ds8x" uid="13447864" lat="35.6854299" lon="-117.6929096"/>
 <node id="9803103272" visible="true" version="1" changeset="122100259" timestamp="2022-06-08T06:18:05Z" user="ds8x" uid="13447864" lat="35.6873399" lon="-117.6919744"/>
 <node id="9803103277" visible="true" version="1" changeset="122100259" timestamp="2022-06-08T06:18:05Z" user="ds8x" uid="13447864" lat="35.6864764" lon="-117.6915471"/>
 <node id="9803103284" visible="true" version="1" changeset="122100259" timestamp="2022-06-08T06:18:05Z" user="ds8x" uid="13447864" lat="35.6852230" lon="-117.6933767"/>
 <node id="9803103288" visible="true" version="1" changeset="122100259" timestamp="2022-06-08T06:18:05Z" user="ds8x" uid="13447864" lat="35.6863781" lon="-117.6912855"/>
 <node id="9803103290" visible="true" version="1" changeset="122100259" timestamp="2022-06-08T06:18:05Z" user="ds8x" uid="13447864" lat="35.6856383" lon="-117.6914232"/>
 <node id="9803109123" visible="true" version="1" changeset="122100259" timestamp="2022-06-08T06:18:05Z" user="ds8x" uid="13447864" lat="35.6838507" lon="-117.6938772"/>
 <node id="9803109128" visible="true" version="1" changeset="122100259" timestamp="2022-06-08T06:18:05Z" user="ds8x" uid="13447864" lat="35.6873773" lon="-117.6921333"/>
 <node id="9803109129" visible="true" version="1" changeset="122100259" timestamp="2022-06-08T06:18:05Z" user="ds8x" uid="13447864" lat="35.6858247" lon="-117.6913016"/>
 <node id="9803109135" visible="true" version="1" changeset="122100259" timestamp="2022-06-08T06:18:05Z" user="ds8x" uid="13447864" lat="35.6864275" lon="-117.6911233"/>
 <node id="9803109153" visible="true" version="1" changeset="122100259" timestamp="2022-06-08T06:18:05Z" user="ds8x" uid="13447864" lat="35.6882569" lon="-117.6895404"/>
 <node id="9803109161" visible="true" version="1" changeset="122100259" timestamp="2022-06-08T06:18:05Z" user="ds8x" uid="13447864" lat="35.6840879" lon="-117.6976171"/>
 <node id="9803109189" visible="true" version="1" changeset="122100259" timestamp="2022-06-08T06:18:05Z" user="ds8x" uid="13447864" lat="35.6864242" lon="-117.6912807"/>
 <node id="9803109194" visible="true" version="1" changeset="122100259" timestamp="2022-06-08T06:18:05Z" user="ds8x" uid="13447864" lat="35.6838663" lon="-117.6917750"/>
 <node id="9803109195" visible="true" version="1" changeset="122100259" timestamp="2022-06-08T06:18:05Z" user="ds8x" uid="13447864" lat="35.6863803" lon="-117.6915664"/>
 <node id="9803109197" visible="true" version="1" changeset="122100259" timestamp="2022-06-08T06:18:05Z" user="ds8x" uid="13447864" lat="35.6868100" lon="-117.6886819"/>
 <node id="9803109198" visible="true" version="1" changeset="122100259" timestamp="2022-06-08T06:18:05Z" user="ds8x" uid="13447864" lat="35.6865166" lon="-117.6914916"/>
 <node id="9803109221" visible="true" version="1" changeset="122100259" timestamp="2022-06-08T06:18:05Z" user="ds8x" uid="13447864" lat="35.6856959" lon="-117.6919768"/>
 <node id="9803109224" visible="true" version="1" changeset="122100259" timestamp="2022-06-08T06:18:05Z" user="ds8x" uid="13447864" lat="35.6910578" lon="-117.6896410"/>
 <node id="9803109229" visible="true" version="1" changeset="122100259" timestamp="2022-06-08T06:18:05Z" user="ds8x" uid="13447864" lat="35.6862963" lon="-117.6913889"/>
 <node id="9803109242" visible="true" version="1" changeset="122100259" timestamp="2022-06-08T06:18:05Z" user="ds8x" uid="13447864" lat="35.6881036" lon="-117.6903241"/>
 <node id="9803109243" visible="true" version="1" changeset="122100259" timestamp="2022-06-08T06:18:05Z" user="ds8x" uid="13447864" lat="35.6861353" lon="-117.6906209"/>
 <node id="9803109244" visible="true" version="1" changeset="122100259" timestamp="2022-06-08T06:18:05Z" user="ds8x" uid="13447864" lat="35.6908852" lon="-117.6898087"/>
 <node id="9803109247" visible="true" version="1" changeset="122100259" timestamp="2022-06-08T06:18:05Z" user="ds8x" uid="13447864" lat="35.6868603" lon="-117.6922860"/>
 <node id="9803109267" visible="true" version="1" changeset="122100259" timestamp="2022-06-08T06:18:05Z" user="ds8x" uid="13447864" lat="35.6864764" lon="-117.6913040"/>
 <node id="9803109271" visible="true" version="1" changeset="122100259" timestamp="2022-06-08T06:18:05Z" user="ds8x" uid="13447864" lat="35.6850317" lon="-117.6926202"/>
 <node id="9803109276" visible="true" version="1" changeset="122100259" timestamp="2022-06-08T06:18:05Z" user="ds8x" uid="13447864" lat="35.6855309" lon="-117.6914601"/>
 <node id="9803109277" visible="true" version="1" changeset="122100259" timestamp="2022-06-08T06:18:05Z" user="ds8x" uid="13447864" lat="35.6863211" lon="-117.6913306"/>
 <node id="9803109285" visible="true" version="1" changeset="122100259" timestamp="2022-06-08T06:18:05Z" user="ds8x" uid="13447864" lat="35.6866611" lon="-117.6913019"/>
 <node id="9803109311" visible="true" version="1" changeset="122100259" timestamp="2022-06-08T06:18:05Z" user="ds8x" uid="13447864" lat="35.6848996" lon="-117.6915650"/>
 <node id="9803109314" visible="true" version="1" changeset="122100259" timestamp="2022-06-08T06:18:05Z" user="ds8x" uid="13447864" lat="35.6862991" lon="-117.6914735"/>
 <node id="9803109322" visible="true" version="1" changeset="122100259" timestamp="2022-06-08T06:18:05Z" user="ds8x" uid="13447864" lat="35.6873987" lon="-117.6908246"/>
 <node id="9803109325" visible="true" version="1" changeset="122100259" timestamp="2022-06-08T06:18:05Z" user="ds8x" uid="13447864" lat="35.6850787" lon="-117.6927603"/>
 <node id="9803109330" visible="true" version="1" changeset="122100259" timestamp="2022-06-08T06:18:05Z" user="ds8x" uid="13447864" lat="35.6876524" lon="-117.6906604"/>
 <node id="9803109333" visible="true" version="1" changeset="122100259" timestamp="2022-06-08T06:18:05Z" user="ds8x" uid="13447864" lat="35.6865254" lon="-117.6913881"/>
 <node id="9803109344" visible="true" version="1" changeset="122100259" timestamp="2022-06-08T06:18:05Z" user="ds8x" uid="13447864" lat="35.6880300" lon="-117.6905829"/>
 <node id="9803109347" visible="true" version="1" changeset="122100259" timestamp="2022-06-08T06:18:05Z" user="ds8x" uid="13447864" lat="35.6851221" lon="-117.6933909"/>
 <node id="9803109349" visible="true" version="1" changeset="122100259" timestamp="2022-06-08T06:18:05Z" user="ds8x" uid="13447864" lat="35.6863458" lon="-117.6908521"/>
 <node id="9803109351" visible="true" version="1" changeset="122100259" timestamp="2022-06-08T06:18:05Z" user="ds8x" uid="13447864" lat="35.6899331" lon="-117.6903899"/>
 <node id="9803109355" visible="true" version="1" changeset="122100259" timestamp="2022-06-08T06:18:05Z" user="ds8x" uid="13447864" lat="35.6874736" lon="-117.6905774"/>
 <node id="9803109370" visible="true" version="1" changeset="122100259" timestamp="2022-06-08T06:18:05Z" user="ds8x" uid="13447864" lat="35.6904801" lon="-117.6900766"/>
 <node id="9803109372" visible="true" version="1" changeset="122100259" timestamp="2022-06-08T06:18:05Z" user="ds8x" uid="13447864" lat="35.6868288" lon="-117.6916662"/>
 <node id="9803109373" visible="true" version="1" changeset="122100259" timestamp="2022-06-08T06:18:05Z" user="ds8x" uid="13447864" lat="35.6866235" lon="-117.6924082"/>
 <node id="9803109402" visible="true" version="1" changeset="122100259" timestamp="2022-06-08T06:18:05Z" user="ds8x" uid="13447864" lat="35.6853537" lon="-117.6931771"/>
 <node id="9803109404" visible="true" version="1" changeset="122100259" timestamp="2022-06-08T06:18:05Z" user="ds8x" uid="13447864" lat="35.6864660" lon="-117.6912114"/>
 <node id="9803109422" visible="true" version="1" changeset="122100259" timestamp="2022-06-08T06:18:05Z" user="ds8x" uid="13447864" lat="35.6854876" lon="-117.6901884"/>
 <node id="9803109464" visible="true" version="1" changeset="122100259" timestamp="2022-06-08T06:18:05Z" user="ds8x" uid="13447864" lat="35.6841407" lon="-117.6855048"/>
 <node id="9803109469" visible="true" version="1" changeset="122100259" timestamp="2022-06-08T06:18:05Z" user="ds8x" uid="13447864" lat="35.6867312" lon="-117.6947894"/>
 <node id="9803109471" visible="true" version="1" changeset="122100259" timestamp="2022-06-08T06:18:05Z" user="ds8x" uid="13447864" lat="35.6849098" lon="-117.6933673"/>
 <node id="9803109479" visible="true" version="1" changeset="122100259" timestamp="2022-06-08T06:18:05Z" user="ds8x" uid="13447864" lat="35.6876974" lon="-117.6921620"/>
 <node id="9803109498" visible="true" version="1" changeset="122100259" timestamp="2022-06-08T06:18:05Z" user="ds8x" uid="13447864" lat="35.6863337" lon="-117.6915361"/>
 <node id="9803109507" visible="true" version="1" changeset="122100259" timestamp="2022-06-08T06:18:05Z" user="ds8x" uid="13447864" lat="35.6892149" lon="-117.6908423"/>
 <node id="9803109511" visible="true" version="1" changeset="122100259" timestamp="2022-06-08T06:18:05Z" user="ds8x" uid="13447864" lat="35.6879338" lon="-117.6907149"/>
 <node id="9803109512" visible="true" version="1" changeset="122100259" timestamp="2022-06-08T06:18:05Z" user="ds8x" uid="13447864" lat="35.6861898" lon="-117.6907173"/>
 <node id="9803109517" visible="true" version="1" changeset="122100259" timestamp="2022-06-08T06:18:05Z" user="ds8x" uid="13447864" lat="35.6875030" lon="-117.6921439"/>
 <node id="9803109521" visible="true" version="1" changeset="122100259" timestamp="2022-06-08T06:18:05Z" user="ds8x" uid="13447864" lat="35.6862797" lon="-117.6907761"/>
 <node id="9803109523" visible="true" version="1" changeset="122100259" timestamp="2022-06-08T06:18:05Z" user="ds8x" uid="13447864" lat="35.6879013" lon="-117.6922151"/>
 <node id="9803109525" visible="true" version="1" changeset="122100259" timestamp="2022-06-08T06:18:05Z" user="ds8x" uid="13447864" lat="35.6850201" lon="-117.6933625"/>
 <node id="9803109528" visible="true" version="1" changeset="122100259" timestamp="2022-06-08T06:18:05Z" user="ds8x" uid="13447864" lat="35.6871259" lon="-117.6879275"/>
 <node id="9803109548" visible="true" version="1" changeset="122100259" timestamp="2022-06-08T06:18:05Z" user="ds8x" uid="13447864" lat="35.6843391" lon="-117.6870893"/>
 <node id="9803109558" visible="true" version="1" changeset="122100259" timestamp="2022-06-08T06:18:05Z" user="ds8x" uid="13447864" lat="35.6862535" lon="-117.6900109"/>
 <node id="9803109578" visible="true" version="1" changeset="122100259" timestamp="2022-06-08T06:18:05Z" user="ds8x" uid="13447864" lat="35.6859120" lon="-117.6912148"/>
 <node id="9803109586" visible="true" version="1" changeset="122100259" timestamp="2022-06-08T06:18:05Z" user="ds8x" uid="13447864" lat="35.6878298" lon="-117.6907964"/>
 <node id="9803109619" visible="true" version="1" changeset="122100259" timestamp="2022-06-08T06:18:05Z" user="ds8x" uid="13447864" lat="35.6877950" lon="-117.6908497"/>
 <node id="9803109627" visible="true" version="1" changeset="122100259" timestamp="2022-06-08T06:18:05Z" user="ds8x" uid="13447864" lat="35.6870259" lon="-117.6922252"/>
 <node id="9803109630" visible="true" version="1" changeset="122100259" timestamp="2022-06-08T06:18:05Z" user="ds8x" uid="13447864" lat="35.6863803" lon="-117.6909877"/>
 <node id="9803109637" visible="true" version="1" changeset="122100259" timestamp="2022-06-08T06:18:05Z" user="ds8x" uid="13447864" lat="35.6868543" lon="-117.6885760"/>
 <node id="9803109638" visible="true" version="1" changeset="122100259" timestamp="2022-06-08T06:18:05Z" user="ds8x" uid="13447864" lat="35.6861133" lon="-117.6905053"/>
 <node id="9803109642" visible="true" version="1" changeset="122100259" timestamp="2022-06-08T06:18:05Z" user="ds8x" uid="13447864" lat="35.6885455" lon="-117.6925349"/>
 <node id="9803109652" visible="true" version="1" changeset="122100259" timestamp="2022-06-08T06:18:05Z" user="ds8x" uid="13447864" lat="35.6838014" lon="-117.6904504"/>
 <node id="9803109653" visible="true" version="1" changeset="122100259" timestamp="2022-06-08T06:18:05Z" user="ds8x" uid="13447864" lat="35.6845428" lon="-117.6960217"/>
 <node id="9803109655" visible="true" version="1" changeset="122100259" timestamp="2022-06-08T06:18:05Z" user="ds8x" uid="13447864" lat="35.6842950" lon="-117.6867367"/>
 <node id="9803109658" visible="true" version="1" changeset="122100259" timestamp="2022-06-08T06:18:05Z" user="ds8x" uid="13447864" lat="35.6848029" lon="-117.6934294"/>
 <node id="9803109664" visible="true" version="1" changeset="122100259" timestamp="2022-06-08T06:18:05Z" user="ds8x" uid="13447864" lat="35.6880825" lon="-117.6904278"/>
 <node id="9803109674" visible="true" version="1" changeset="122100259" timestamp="2022-06-08T06:18:05Z" user="ds8x" uid="13447864" lat="35.6853040" lon="-117.6933515"/>
 <node id="9803109685" visible="true" version="1" changeset="122100259" timestamp="2022-06-08T06:18:05Z" user="ds8x" uid="13447864" lat="35.6864253" lon="-117.6915703"/>
 <node id="12180050147" visible="true" version="1" changeset="156683883" timestamp="2024-09-16T11:27:15Z" user="Maksim Sazanovich" uid="19969905" lat="35.6847417" lon="-117.6903043"/>
 <way id="1067793428" visible="true" version="2" changeset="154959113" timestamp="2024-08-08T03:03:39Z" user="CurlingMan13" uid="6641970">
  <nd ref="9803109638"/>
  <nd ref="9803109243"/>
  <nd ref="9803109512"/>
  <nd ref="9803109521"/>
  <nd ref="9803109349"/>
  <nd ref="9803109630"/>
  <nd ref="9803109135"/>
  <nd ref="9803109404"/>
  <nd ref="9803109267"/>
  <nd ref="9803109333"/>
  <nd ref="9803109285"/>
  <nd ref="9803109322"/>
  <nd ref="9803109330"/>
  <tag k="highway" v="track"/>
 </way>
 <way id="1067793437" visible="true" version="2" changeset="154959113" timestamp="2024-08-08T03:03:39Z" user="CurlingMan13" uid="6641970">
  <nd ref="9803103265"/>
  <nd ref="9803109619"/>
  <nd ref="9803109586"/>
  <nd ref="9803103225"/>
  <nd ref="9803109511"/>
  <nd ref="9803109344"/>
  <nd ref="9803109664"/>
  <nd ref="9803109242"/>
  <nd ref="9803109153"/>
  <tag k="highway" v="track"/>
 </way>
 <way id="1067793443" visible="true" version="2" changeset="154959113" timestamp="2024-08-08T03:03:39Z" user="CurlingMan13" uid="6641970">
  <nd ref="9803109271"/>
  <nd ref="9803109221"/>
  <tag k="highway" v="track"/>
 </way>
 <way id="1067793459" visible="true" version="2" changeset="154959113" timestamp="2024-08-08T03:03:39Z" user="CurlingMan13" uid="6641970">
  <nd ref="9803109402"/>
  <nd ref="9803109373"/>
  <nd ref="9803103272"/>
  <nd ref="9803109507"/>
  <nd ref="9803109351"/>
  <nd ref="9803109370"/>
  <nd ref="9803109244"/>
  <nd ref="9803109224"/>
  <tag k="highway" v="track"/>
 </way>
 <way id="1067793464" visible="true" version="3" changeset="156683883" timestamp="2024-09-16T11:27:15Z" user="Maksim Sazanovich" uid="19969905">
  <nd ref="9803109464"/>
  <nd ref="9803109655"/>
  <nd ref="9803109548"/>
  <nd ref="12180050147"/>
  <nd ref="9803109311"/>
  <nd ref="9803109271"/>
  <nd ref="9803109325"/>
  <tag k="highway" v="track"/>
 </way>
 <way id="1067793467" visible="true" version="2" changeset="154959113" timestamp="2024-08-08T03:03:39Z" user="CurlingMan13" uid="6641970">
  <nd ref="9803103233"/>
  <nd ref="9803109469"/>
  <tag k="highway" v="track"/>
 </way>
 <way id="1067793478" visible="true" version="2" changeset="154959113" timestamp="2024-08-08T03:03:39Z" user="CurlingMan13" uid="6641970">
  <nd ref="9803109333"/>
  <nd ref="9803109267"/>
  <nd ref="9803109189"/>
  <nd ref="9803103288"/>
  <nd ref="9803109277"/>
  <nd ref="9803109229"/>
  <nd ref="9803109314"/>
  <nd ref="9803109498"/>
  <nd ref="9803109195"/>
  <nd ref="9803109685"/>
  <nd ref="9803103277"/>
  <nd ref="9803109198"/>
  <nd ref="9803109333"/>
  <tag k="highway" v="track"/>
 </way>
 <way id="1067793479" visible="true" version="2" changeset="154959113" timestamp="2024-08-08T03:03:39Z" user="CurlingMan13" uid="6641970">
  <nd ref="9803109558"/>
  <nd ref="9803109355"/>
  <nd ref="9803109330"/>
  <nd ref="9803103225"/>
  <tag k="highway" v="track"/>
 </way>
 <way id="1067793491" visible="true" version="2" changeset="154959113" timestamp="2024-08-08T03:03:39Z" user="CurlingMan13" uid="6641970">
  <nd ref="9803109198"/>
  <nd ref="9803109372"/>
  <tag k="highway" v="track"/>
 </way>
 <way id="1067793499" visible="true" version="2" changeset="154959113" timestamp="2024-08-08T03:03:39Z" user="CurlingMan13" uid="6641970">
  <nd ref="9803109123"/>
  <nd ref="9803109658"/>
  <nd ref="9803109471"/>
  <nd ref="9803109525"/>
  <nd ref="9803109347"/>
  <nd ref="9803103284"/>
  <nd ref="9803109674"/>
  <tag k="highway" v="track"/>
 </way>
 <way id="1067793500" visible="true" version="3" changeset="156683883" timestamp="2024-09-16T11:27:15Z" user="Maksim Sazanovich" uid="19969905">
  <nd ref="9803109558"/>
  <nd ref="9803109422"/>
  <nd ref="12180050147"/>
  <nd ref="9803109652"/>
  <tag k="highway" v="track"/>
 </way>
 <way id="1067793509" visible="true" version="2" changeset="154959113" timestamp="2024-08-08T03:03:39Z" user="CurlingMan13" uid="6641970">
  <nd ref="9803109373"/>
  <nd ref="9803109247"/>
  <nd ref="9803109627"/>
  <nd ref="9803103236"/>
  <nd ref="9803109128"/>
  <nd ref="9803109517"/>
  <nd ref="9803109479"/>
  <nd ref="9803109523"/>
  <nd ref="9803109642"/>
  <tag k="highway" v="track"/>
 </way>
 <way id="1067793526" visible="true" version="3" changeset="170031128" timestamp="2025-08-05T22:59:24Z" user="Nightwolf23" uid="22443339">
  <nd ref="3926543675"/>
  <nd ref="9803109528"/>
  <nd ref="9803109637"/>
  <nd ref="9803109197"/>
  <nd ref="9803109558"/>
  <nd ref="9803109638"/>
  <nd ref="9803109578"/>
  <nd ref="9803109221"/>
  <nd ref="9803103265"/>
  <nd ref="9803109402"/>
  <nd ref="9803103233"/>
  <nd ref="9803109674"/>
  <nd ref="9803103227"/>
  <nd ref="9803109653"/>
  <nd ref="9803109161"/>
  <tag k="highway" v="track"/>
 </way>
 <way id="1067793527" visible="true" version="2" changeset="154959113" timestamp="2024-08-08T03:03:39Z" user="CurlingMan13" uid="6641970">
  <nd ref="9803109194"/>
  <nd ref="9803109311"/>
  <nd ref="9803109276"/>
  <nd ref="9803103290"/>
  <nd ref="9803103253"/>
  <nd ref="9803109129"/>
  <nd ref="9803109578"/>
  <tag k="highway" v="track"/>
 </way>
</osm>
